NORAD_CAT_ID,OBJECT_NAME,OBJECT_TYPE,EPOCH,MEAN_MOTION,ECCENTRICITY,INCLINATION,RA_OF_ASC_NODE,ARG_OF_PERICENTER,MEAN_ANOMALY,BSTAR,MEAN_MOTION_DOT,MEAN_MOTION_DDOT,TLE_LINE0,TLE_LINE1,TLE_LINE2,SEMIMAJOR_AXIS,PERIOD,APOGEE,PERIGEE,DECAYED
55949.0,STARLINK-5899,PAYLOAD,2023-04-20 01:05:56,15.69926895,0.0003137,70.0016,87.4978,266.7394,93.3443,2.1746e-05,2.403e-05,0.0,0 STARLINK-5899,1 55949U 23037AM  23110.04579079  .00002403  00000-0  21746-4 0  9998,2 55949  70.0016  87.4978 0003137 266.7394  93.3443 15.69926895  5755,6737.243,91.724,361.222,356.995,0.0
55949.0,STARLINK-5899,PAYLOAD,2023-04-20 08:44:41,15.69932173,0.0003148,70.0013,86.602,263.3374,96.7463,4.732e-05,5.483e-05,0.0,0 STARLINK-5899,1 55949U 23037AM  23110.36437332  .00005483  00000-0  47320-4 0  9995,2 55949  70.0013  86.6020 0003148 263.3374  96.7463 15.69932173  5467,6737.228,91.724,361.214,356.972,0.0
55949.0,STARLINK-5899,PAYLOAD,2023-04-21 06:09:13,15.69935233,0.0002868,70.0023,84.0958,260.9204,99.1667,6.3181e-05,7.394e-05,0.0,0 STARLINK-5899,1 55949U 23037AM  23111.25640901  .00007394  00000-0  63181-4 0  9998,2 55949  70.0023  84.0958 0002868 260.9204  99.1667 15.69935233  5949,6737.219,91.724,361.017,357.152,0.0
55949.0,STARLINK-5899,PAYLOAD,2023-04-21 21:26:45,15.69930843,0.0003113,70.0003,82.3004,272.785,87.299,3.8374e-05,4.405e-05,0.0,0 STARLINK-5899,1 55949U 23037AM  23111.89357649  .00004405  00000-0  38374-4 0  9998,2 55949  70.0003  82.3004 0003113 272.7850  87.2990 15.69930843  5705,6737.232,91.724,361.194,357.0,0.0
55949.0,STARLINK-5899,PAYLOAD,2023-04-21 22:58:30,15.6993078,0.0003078,70.0001,82.1218,271.8028,88.2815,3.8804e-05,4.457e-05,0.0,0 STARLINK-5899,1 55949U 23037AM  23111.95729222  .00004457  00000-0  38804-4 0  9990,2 55949  70.0001  82.1218 0003078 271.8028  88.2815 15.69930780  5713,6737.232,91.724,361.171,357.023,0.0
55949.0,STARLINK-5899,PAYLOAD,2023-04-22 08:09:00,15.69934986,0.0003401,70.002,81.0483,272.3688,87.7118,4.5802e-05,5.301e-05,0.0,0 STARLINK-5899,1 55949U 23037AM  23112.33959122  .00005301  00000-0  45802-4 0  9992,2 55949  70.0020  81.0483 0003401 272.3688  87.7118 15.69934986  6111,6737.22,91.724,361.376,356.794,0.0
55949.0,STARLINK-5899,PAYLOAD,2023-04-23 04:01:47,15.69923756,0.0002538,70.0028,78.7227,263.4436,96.6471,1.2413e-05,1.28e-05,0.0,0 STARLINK-5899,1 55949U 23037AM  23113.16791412  .00001280  00000-0  12413-4 0  9994,2 55949  70.0028  78.7227 0002538 263.4436  96.6471 15.69923756  6248,6737.252,91.724,360.827,357.407,0.0
55949.0,STARLINK-5899,PAYLOAD,2023-04-23 07:05:17,15.69933902,0.0002996,70.002,78.3621,259.6995,100.3863,5.22e-05,6.071e-05,0.0,0 STARLINK-5899,1 55949U 23037AM  23113.29534591  .00006071  00000-0  52200-4 0  9992,2 55949  70.0020  78.3621 0002996 259.6995 100.3863 15.69933902  6263,6737.223,91.724,361.107,357.07,0.0
55949.0,STARLINK-5899,PAYLOAD,2023-04-23 20:51:03,15.69936513,0.0003003,70.0024,76.7489,257.376,102.7101,6.239e-05,7.299e-05,0.0,0 STARLINK-5899,1 55949U 23037AM  23113.86879538  .00007299  00000-0  62390-4 0  9992,2 55949  70.0024  76.7489 0003003 257.3760 102.7101 15.69936513  6011,6737.216,91.723,361.104,357.057,0.0
55949.0,STARLINK-5899,PAYLOAD,2023-04-23 23:54:34,15.69943372,0.0002971,70.0026,76.3904,257.4438,102.6426,0.00010049,0.00011896,0.0,0 STARLINK-5899,1 55949U 23037AM  23113.99622797  .00011896  00000-0  10049-3 0  9990,2 55949  70.0026  76.3904 0002971 257.4438 102.6426 15.69943372  6039,6737.196,91.723,361.063,357.059,0.0
55949.0,STARLINK-5899,PAYLOAD,2023-04-25 03:26:07,15.69898551,0.0003114,70.0025,73.1667,252.882,107.2035,-6.3402e-05,-7.82e-05,0.0,0 STARLINK-5899,1 55949U 23037AM  23115.14314118 -.00007820  00000-0 -63402-4 0  9990,2 55949  70.0025  73.1667 0003114 252.8820 107.2035 15.69898551  6555,6737.324,91.726,361.287,357.091,0.0
55949.0,STARLINK-5899,PAYLOAD,2023-04-25 06:29:37,15.69895429,0.0003387,70.002,72.8089,255.1726,104.9095,-5.8147e-05,-7.19e-05,0.0,0 STARLINK-5899,1 55949U 23037AM  23115.27057815 -.00007190  00000-0 -58147-4 0  9992,2 55949  70.0020  72.8089 0003387 255.1726 104.9095 15.69895429  6233,6737.333,91.726,361.48,356.916,0.0
55949.0,STARLINK-5899,PAYLOAD,2023-04-26 06:57:39,15.69919446,0.0002192,70.0043,69.9455,258.9407,101.1543,1.8463e-05,2.008e-05,0.0,0 STARLINK-5899,1 55949U 23037AM  23116.29004238  .00002008  00000-0  18463-4 0  9994,2 55949  70.0043  69.9455 0002192 258.9407 101.1543 15.69919446  6392,6737.264,91.724,360.606,357.653,0.0
55949.0,STARLINK-5899,PAYLOAD,2023-04-26 14:36:25,15.69923349,0.0002537,70.0032,69.0492,256.7687,103.3226,8.3327e-05,9.817e-05,0.0,0 STARLINK-5899,1 55949U 23037AM  23116.60862575  .00009817  00000-0  83327-4 0  9991,2 55949  70.0032  69.0492 0002537 256.7687 103.3226 15.69923349  6446,6737.253,91.724,360.828,357.409,0.0
55949.0,STARLINK-5899,PAYLOAD,2023-04-27 02:50:25,15.69932228,0.0002661,70.0029,67.6162,260.2957,99.7938,5.3099e-05,6.178e-05,0.0,0 STARLINK-5899,1 55949U 23037AM  23117.11835371  .00006178  00000-0  53099-4 0  9992,2 55949  70.0029  67.6162 0002661 260.2957  99.7938 15.69932228  6868,6737.228,91.724,360.886,357.3,0.0
55949.0,STARLINK-5899,PAYLOAD,2023-04-27 07:25:41,15.69922594,0.0002997,70.0021,67.077,248.3605,111.7272,4.7145e-05,5.459e-05,0.0,0 STARLINK-5899,1 55949U 23037AM  23117.30950746  .00005459  00000-0  47145-4 0  9993,2 55949  70.0021  67.0770 0002997 248.3605 111.7272 15.69922594  6555,6737.255,91.724,361.14,357.101,0.0
55949.0,STARLINK-5899,PAYLOAD,2023-04-28 06:21:58,15.69907556,0.0002891,70.0022,64.3907,255.3007,104.7869,-6.6361e-05,-8.178e-05,0.0,0 STARLINK-5899,1 55949U 23037AM  23118.26526005 -.00008178  00000-0 -66361-4 0  9990,2 55949  70.0022  64.3907 0002891 255.3007 104.7869 15.69907556  7045,6737.298,91.725,361.111,357.216,0.0
55949.0,STARLINK-5899,PAYLOAD,2023-04-28 20:07:43,15.69925886,0.0003471,70.0015,62.78,273.0553,87.0245,4.8513e-06,3.71e-06,0.0,0 STARLINK-5899,1 55949U 23037AM  23118.83870229  .00000371  00000-0  48513-5 0  9998,2 55949  70.0015  62.7800 0003471 273.0553  87.0245 15.69925886  7136,6737.246,91.724,361.45,356.773,0.0
55949.0,STARLINK-5899,PAYLOAD,2023-04-29 05:18:14,15.69926662,0.0003512,70.0012,61.7036,264.0906,95.9889,1.5513e-05,1.653e-05,0.0,0 STARLINK-5899,1 55949U 23037AM  23119.22100155  .00001653  00000-0  15513-4 0  9993,2 55949  70.0012  61.7036 0003512 264.0906  95.9889 15.69926662  6854,6737.244,91.724,361.475,356.743,0.0
55949.0,STARLINK-5899,PAYLOAD,2023-04-29 23:39:15,15.69928083,0.0003515,70.0019,59.5538,260.7847,99.2951,4.1718e-05,4.807e-05,0.0,0 STARLINK-5899,1 55949U 23037AM  23119.98560060  .00004807  00000-0  41718-4 0  9991,2 55949  70.0019  59.5538 0003515 260.7847  99.2951 15.69928083  7311,6737.24,91.724,361.473,356.737,0.0
55949.0,STARLINK-5899,PAYLOAD,2023-04-30 07:18:02,15.69915592,0.0002966,70.0022,58.6597,269.4426,90.643,-4.9083e-07,-2.71e-06,0.0,0 STARLINK-5899,1 55949U 23037AM  23120.30419110 -.00000271  00000-0 -49083-6 0  9996,2 55949  70.0022  58.6597 0002966 269.4426  90.6430 15.69915592  7361,6737.275,91.725,361.139,357.142,0.0
55949.0,STARLINK-5899,PAYLOAD,2023-05-01 04:42:33,15.69931895,0.0003174,70.0014,56.1503,264.0442,96.0392,3.0008e-05,3.398e-05,0.0,0 STARLINK-5899,1 55949U 23037AM  23121.19622024  .00003398  00000-0  30008-4 0  9990,2 55949  70.0014  56.1503 0003174 264.0442  96.0392 15.69931895  7500,6737.229,91.724,361.232,356.955,0.0
55949.0,STARLINK-5899,PAYLOAD,2023-05-01 21:31:50,15.69914615,0.0004378,70.0026,54.1794,283.0275,77.0431,-1.2563e-06,-3.64e-06,0.0,0 STARLINK-5899,1 55949U 23037AM  23121.89710980 -.00000364  00000-0 -12563-5 0  9995,2 55949  70.0026  54.1794 0004378 283.0275  77.0431 15.69914615  7273,6737.278,91.725,362.093,356.194,0.0
55949.0,STARLINK-5899,PAYLOAD,2023-05-01 23:03:35,15.69917859,0.0003007,70.0031,54.0007,257.7404,102.3456,-6.1805e-06,-9.55e-06,0.0,0 STARLINK-5899,1 55949U 23037AM  23121.96082452 -.00000955  00000-0 -61805-5 0  9998,2 55949  70.0031  54.0007 0003007 257.7404 102.3456 15.69917859  7626,6737.269,91.725,361.16,357.108,0.0
55949.0,STARLINK-5899,PAYLOAD,2023-05-02 12:49:21,15.69925735,0.0003097,70.0019,52.3887,268.3297,91.7544,2.3646e-05,2.632e-05,0.0,0 STARLINK-5899,1 55949U 23037AM  23122.53427416  .00002632  00000-0  23646-4 0  9997,2 55949  70.0019  52.3887 0003097 268.3297  91.7544 15.69925735  7379,6737.246,91.724,361.198,357.025,0.0
55949.0,STARLINK-5899,PAYLOAD,2023-05-02 20:28:07,15.69910233,0.000327,70.0028,51.4908,257.9067,102.1763,-2.9179e-05,-3.717e-05,0.0,0 STARLINK-5899,1 55949U 23037AM  23122.85286314 -.00003717  00000-0 -29179-4 0  9996,2 55949  70.0028  51.4908 0003270 257.9067 102.1763 15.69910233  7428,6737.291,91.725,361.359,356.953,0.0
55949.0,STARLINK-5899,PAYLOAD,2023-05-03 04:06:52,15.69916186,0.0003091,70.0023,50.5965,253.5656,106.52,-9.4184e-06,-1.344e-05,0.0,0 STARLINK-5899,1 55949U 23037AM  23123.17144594 -.00001344  00000-0 -94184-5 0  9998,2 55949  70.0023  50.5965 0003091 253.5656 106.5200 15.69916186  7813,6737.274,91.725,361.221,357.056,0.0
55949.0,STARLINK-5899,PAYLOAD,2023-05-03 20:56:08,15.69932373,0.0003788,70.0013,48.6249,265.5276,94.5487,5.1495e-05,5.986e-05,0.0,0 STARLINK-5899,1 55949U 23037AM  23123.87232431  .00005986  00000-0  51495-4 0  9994,2 55949  70.0013  48.6249 0003788 265.5276  94.5487 15.69932373  7582,6737.227,91.724,361.645,356.54,0.0
55949.0,STARLINK-5899,PAYLOAD,2023-05-04 03:03:09,15.69937307,0.0003709,70.0022,47.909,255.8238,104.2545,5.3716e-05,6.255e-05,0.0,0 STARLINK-5899,1 55949U 23037AM  23124.12718789  .00006255  00000-0  53716-4 0  9996,2 55949  70.0022  47.9090 0003709 255.8238 104.2545 15.69937307  7969,6737.213,91.723,361.577,356.58,0.0
55949.0,STARLINK-5899,PAYLOAD,2023-05-04 04:34:54,15.69930602,0.0003457,70.0036,47.7317,257.8384,102.2424,3.4503e-05,3.939e-05,0.0,0 STARLINK-5899,1 55949U 23037AM  23124.19090755  .00003939  00000-0  34503-4 0  9998,2 55949  70.0036  47.7317 0003457 257.8384 102.2424 15.69930602  7637,6737.233,91.724,361.427,356.768,0.0
